ONEWEB-0620             
1 55161U 23004X   25344.60890577  .00000574  00000+0  15841-2 0  9993
2 55161  87.8852  58.6363 0001431  97.7985 262.3305 13.11412428141119
ONEWEB-0621             
1 55162U 23004Y   25344.25452457 -.00000398  00000+0 -11580-2 0  9998
2 55162  87.8869  58.6773 0001730 110.9421 249.1892 13.11418639141044
ONEWEB-0622             
1 55163U 23004Z   25344.25962781  .00000042  00000+0  82377-4 0  9993
2 55163  87.8861  58.6854 0001197 128.4541 231.6694 13.11418688141030
ONEWEB-0623             
1 55164U 23004AA  25344.62050742  .00000065  00000+0  13534-3 0  9993
2 55164  87.9112  43.3808 0001730 126.6235 233.5056 13.17652887142754
ONEWEB-0624             
1 55165U 23004AB  25344.19608404  .00000450  00000+0  12083-2 0  9995
2 55165  87.8934  28.1663 0001629 106.6850 253.4457 13.12921736143275
ONEWEB-0625             
1 55166U 23004AC  25344.61038764  .00000022  00000+0  22940-4 0  9999
2 55166  87.9110  43.3774 0001943  98.2931 261.8421 13.17647973142748
ONEWEB-0626             
1 55167U 23004AD  25344.44840087  .00000022  00000+0  23905-4 0  9992
2 55167  87.9112  43.4096 0001503  84.7321 275.3982 13.17649257142721
ONEWEB-0627             
1 55168U 23004AE  25344.43658314  .00000083  00000+0  18147-3 0  9990
2 55168  87.9112  43.4126 0001571 119.8021 240.3267 13.17650075142726
